{
  "type": "FeatureCollection",
  "features": [
    {
      "type": "Feature",
      "properties": {
        "norad_id": 66863,
        "name": "STARLINK-36134",
        "group": "last-30-days",
        "lat": 41.40604838669229,
        "lon": 145.6887212383392,
        "alt_km": 409.1954407851872,
        "timestamp": "2025-12-26T21:25:51.734629+00:00",
        "meta_object_name": "STARLINK-36134",
        "meta_object_id": "2025-281R",
        "meta_epoch": "2025-12-26T14:00:04.000032",
        "meta_mean_motion": 15.50560651,
        "meta_eccentricity": 0.00010462,
        "meta_inclination": 43.0002,
        "meta_ra_of_asc_node": 38.6364,
        "meta_arg_of_pericenter": 292.4898,
        "meta_mean_anomaly": 241.3684,
        "meta_ephemeris_type": 0,
        "meta_classification_type": "U",
        "meta_norad_cat_id": 66863,
        "meta_element_set_no": 999,
        "meta_rev_at_epoch": 361,
        "meta_bstar": 2.8237747e-05,
        "meta_mean_motion_dot": 1.314e-05,
        "meta_mean_motion_ddot": 0,
        "tle_line1": "1 66863U 25281R   25360.58337963  .00001314  00000+0  28238-4 0  9992",
        "tle_line2": "2 66863  43.0002  38.6364 0001046 292.4898 241.3684 15.50560651  3615"
      },
      "geometry": {
        "type": "Point",
        "coordinates": [
          145.6887212383392,
          41.40604838669229
        ]
      }
    },
    {
      "type": "Feature",
      "properties": {
        "norad_id": 66864,
        "name": "STARLINK-36070",
        "group": "last-30-days",
        "lat": 40.98653555385538,
        "lon": 148.0073397134627,
        "alt_km": 409.1594848859286,
        "timestamp": "2025-12-26T21:25:51.734639+00:00",
        "meta_object_name": "STARLINK-36070",
        "meta_object_id": "2025-281S",
        "meta_epoch": "2025-12-26T14:00:04.000032",
        "meta_mean_motion": 15.505028,
        "meta_eccentricity": 0.00010889,
        "meta_inclination": 43.0004,
        "meta_ra_of_asc_node": 38.6317,
        "meta_arg_of_pericenter": 259.5125,
        "meta_mean_anomaly": 276.169,
        "meta_ephemeris_type": 0,
        "meta_classification_type": "U",
        "meta_norad_cat_id": 66864,
        "meta_element_set_no": 999,
        "meta_rev_at_epoch": 364,
        "meta_bstar": 0.0021996476,
        "meta_mean_motion_dot": 0.00130519,
        "meta_mean_motion_ddot": 0,
        "tle_line1": "1 66864U 25281S   25360.58337963  .00130519  00000+0  21996-2 0  9995",
        "tle_line2": "2 66864  43.0004  38.6317 0001088 259.5125 276.1690 15.50502800  3647"
      },
      "geometry": {
        "type": "Point",
        "coordinates": [
          148.0073397134627,
          40.98653555385538
        ]
      }
    },
    {
      "type": "Feature",
      "properties": {
        "norad_id": 66865,
        "name": "STARLINK-36117",
        "group": "last-30-days",
        "lat": 39.90057905231737,
        "lon": 153.00748925732333,
        "alt_km": 409.5248163622973,
        "timestamp": "2025-12-26T21:25:51.734649+00:00",
        "meta_object_name": "STARLINK-36117",
        "meta_object_id": "2025-281T",
        "meta_epoch": "2025-12-26T14:00:04.000032",
        "meta_mean_motion": 15.50534808,
        "meta_eccentricity": 0.00013392,
        "meta_inclination": 43.0003,
        "meta_ra_of_asc_node": 38.6228,
        "meta_arg_of_pericenter": 287.0502,
        "meta_mean_anomaly": 252.5586,
        "meta_ephemeris_type": 0,
        "meta_classification_type": "U",
        "meta_norad_cat_id": 66865,
        "meta_element_set_no": 999,
        "meta_rev_at_epoch": 361,
        "meta_bstar": 0.0016998741,
        "meta_mean_motion_dot": 0.00100513,
        "meta_mean_motion_ddot": 0,
        "tle_line1": "1 66865U 25281T   25360.58337963  .00100513  00000+0  16999-2 0  9994",
        "tle_line2": "2 66865  43.0003  38.6228 0001339 287.0502 252.5586 15.50534808  3614"
      },
      "geometry": {
        "type": "Point",
        "coordinates": [
          153.00748925732333,
          39.90057905231737
        ]
      }
    },
    {
      "type": "Feature",
      "properties": {
        "norad_id": 66866,
        "name": "STARLINK-36126",
        "group": "last-30-days",
        "lat": 39.336610218709886,
        "lon": 155.2255799229089,
        "alt_km": 409.316975769103,
        "timestamp": "2025-12-26T21:25:51.734659+00:00",
        "meta_object_name": "STARLINK-36126",
        "meta_object_id": "2025-281U",
        "meta_epoch": "2025-12-26T14:00:04.000032",
        "meta_mean_motion": 15.50504459,
        "meta_eccentricity": 0.00010463,
        "meta_inclination": 43.0003,
        "meta_ra_of_asc_node": 38.6174,
        "meta_arg_of_pericenter": 254.0863,
        "meta_mean_anomaly": 287.3536,
        "meta_ephemeris_type": 0,
        "meta_classification_type": "U",
        "meta_norad_cat_id": 66866,
        "meta_element_set_no": 999,
        "meta_rev_at_epoch": 364,
        "meta_bstar": 0.0022060294,
        "meta_mean_motion_dot": 0.00130913,
        "meta_mean_motion_ddot": 0,
        "tle_line1": "1 66866U 25281U   25360.58337963  .00130913  00000+0  22060-2 0  9998",
        "tle_line2": "2 66866  43.0003  38.6174 0001046 254.0863 287.3536 15.50504459  3647"
      },
      "geometry": {
        "type": "Point",
        "coordinates": [
          155.2255799229089,
          39.336610218709886
        ]
      }
    },
    {
      "type": "Feature",
      "properties": {
        "norad_id": 66867,
        "name": "STARLINK-36101",
        "group": "last-30-days",
        "lat": 38.65278776440813,
        "lon": 157.67552785351216,
        "alt_km": 409.45095297335047,
        "timestamp": "2025-12-26T21:25:51.734671+00:00",
        "meta_object_name": "STARLINK-36101",
        "meta_object_id": "2025-281V",
        "meta_epoch": "2025-12-26T14:00:04.000032",
        "meta_mean_motion": 15.50558079,
        "meta_eccentricity": 9.775e-05,
        "meta_inclination": 43,
        "meta_ra_of_asc_node": 38.6122,
        "meta_arg_of_pericenter": 253.3383,
        "meta_mean_anomaly": 290.1094,
        "meta_ephemeris_type": 0,
        "meta_classification_type": "U",
        "meta_norad_cat_id": 66867,
        "meta_element_set_no": 999,
        "meta_rev_at_epoch": 345,
        "meta_bstar": 5.9556052e-05,
        "meta_mean_motion_dot": 3.151e-05,
        "meta_mean_motion_ddot": 0,
        "tle_line1": "1 66867U 25281V   25360.58337963  .00003151  00000+0  59556-4 0  9994",
        "tle_line2": "2 66867  43.0000  38.6122 0000977 253.3383 290.1094 15.50558079  3456"
      },
      "geometry": {
        "type": "Point",
        "coordinates": [
          157.67552785351216,
          38.65278776440813
        ]
      }
    },
    {
      "type": "Feature",
      "properties": {
        "norad_id": 66868,
        "name": "STARLINK-36108",
        "group": "last-30-days",
        "lat": 37.97278244433036,
        "lon": 159.90979022735226,
        "alt_km": 409.6716488521033,
        "timestamp": "2025-12-26T21:25:51.734681+00:00",
        "meta_object_name": "STARLINK-36108",
        "meta_object_id": "2025-281W",
        "meta_epoch": "2025-12-26T14:00:04.000032",
        "meta_mean_motion": 15.50572454,
        "meta_eccentricity": 0.00011332,
        "meta_inclination": 43.0002,
        "meta_ra_of_asc_node": 38.6085,
        "meta_arg_of_pericenter": 271.4424,
        "meta_mean_anomaly": 273.8613,
        "meta_ephemeris_type": 0,
        "meta_classification_type": "U",
        "meta_norad_cat_id": 66868,
        "meta_element_set_no": 999,
        "meta_rev_at_epoch": 345,
        "meta_bstar": 0.00037945262,
        "meta_mean_motion_dot": 0.00021976,
        "meta_mean_motion_ddot": 0,
        "tle_line1": "1 66868U 25281W   25360.58337963  .00021976  00000+0  37945-3 0  9997",
        "tle_line2": "2 66868  43.0002  38.6085 0001133 271.4424 273.8613 15.50572454  3457"
      },
      "geometry": {
        "type": "Point",
        "coordinates": [
          159.90979022735226,
          37.97278244433036
        ]
      }
    },
    {
      "type": "Feature",
      "properties": {
        "norad_id": 66869,
        "name": "STARLINK-36092",
        "group": "last-30-days",
        "lat": 37.27327775426531,
        "lon": 162.03493099880095,
        "alt_km": 409.699669706014,
        "timestamp": "2025-12-26T21:25:51.734691+00:00",
        "meta_object_name": "STARLINK-36092",
        "meta_object_id": "2025-281X",
        "meta_epoch": "2025-12-26T14:00:04.000032",
        "meta_mean_motion": 15.50499322,
        "meta_eccentricity": 0.00011599,
        "meta_inclination": 43.0004,
        "meta_ra_of_asc_node": 38.6027,
        "meta_arg_of_pericenter": 257.2841,
        "meta_mean_anomaly": 289.8924,
        "meta_ephemeris_type": 0,
        "meta_classification_type": "U",
        "meta_norad_cat_id": 66869,
        "meta_element_set_no": 999,
        "meta_rev_at_epoch": 364,
        "meta_bstar": 0.0021955766,
        "meta_mean_motion_dot": 0.00130256,
        "meta_mean_motion_ddot": 0,
        "tle_line1": "1 66869U 25281X   25360.58337963  .00130256  00000+0  21956-2 0  9994",
        "tle_line2": "2 66869  43.0004  38.6027 0001159 257.2841 289.8924 15.50499322  3644"
      },
      "geometry": {
        "type": "Point",
        "coordinates": [
          162.03493099880095,
          37.27327775426531
        ]
      }
    }
  ]
}